CCSDS_OMM_VERS = 2.0
CREATION_DATE  = 
ORIGINATOR     = 

OBJECT_NAME    = UNKNOWN
OBJECT_ID      = 
CENTER_NAME    = EARTH
REF_FRAME      = TEME
TIME_SYSTEM    = UTC
MEAN_ELEMENT_THEORY = SGP/SGP4

EPOCH          = 2025-10-29T11:30:11.920896
MEAN_MOTION    = 14.63871155
ECCENTRICITY   = .0106808
INCLINATION    = 98.6756
RA_OF_ASC_NODE = 123.7111
ARG_OF_PERICENTER = 45.1563
MEAN_ANOMALY   = 9.4879

EPHEMERIS_TYPE = 0
CLASSIFICATION_TYPE = U
NORAD_CAT_ID   = 87706
ELEMENT_SET_NO = 999
REV_AT_EPOCH   = 57204
BSTAR          = .82876E-3
MEAN_MOTION_DOT = .4649E-4
MEAN_MOTION_DDOT = 0

CCSDS_OMM_VERS = 2.0
CREATION_DATE  = 
ORIGINATOR     = 

OBJECT_NAME    = UNKNOWN
OBJECT_ID      = 
CENTER_NAME    = EARTH
REF_FRAME      = TEME
TIME_SYSTEM    = UTC
MEAN_ELEMENT_THEORY = SGP/SGP4

EPOCH          = 2025-10-29T07:43:10.185024
MEAN_MOTION    = 14.90538157
ECCENTRICITY   = .0012605
INCLINATION    = 82.8680
RA_OF_ASC_NODE = 296.1918
ARG_OF_PERICENTER = 177.6525
MEAN_ANOMALY   = 182.4756

EPHEMERIS_TYPE = 0
CLASSIFICATION_TYPE = U
NORAD_CAT_ID   = 87725
ELEMENT_SET_NO = 999
REV_AT_EPOCH   = 62729
BSTAR          = .42485E-2
MEAN_MOTION_DOT = .41797E-3
MEAN_MOTION_DDOT = 0

CCSDS_OMM_VERS = 2.0
CREATION_DATE  = 
ORIGINATOR     = 

OBJECT_NAME    = UNKNOWN
OBJECT_ID      = 
CENTER_NAME    = EARTH
REF_FRAME      = TEME
TIME_SYSTEM    = UTC
MEAN_ELEMENT_THEORY = SGP/SGP4

EPOCH          = 2025-10-22T04:43:09.887808
MEAN_MOTION    = 13.74493218
ECCENTRICITY   = .0030743
INCLINATION    = 82.9413
RA_OF_ASC_NODE = 272.2399
ARG_OF_PERICENTER = 145.2410
MEAN_ANOMALY   = 215.0763

EPHEMERIS_TYPE = 0
CLASSIFICATION_TYPE = U
NORAD_CAT_ID   = 87730
ELEMENT_SET_NO = 999
REV_AT_EPOCH   = 57825
BSTAR          = .10736E-3
MEAN_MOTION_DOT = .117E-5
MEAN_MOTION_DDOT = 0

CCSDS_OMM_VERS = 2.0
CREATION_DATE  = 
ORIGINATOR     = 

OBJECT_NAME    = UNKNOWN
OBJECT_ID      = 
CENTER_NAME    = EARTH
REF_FRAME      = TEME
TIME_SYSTEM    = UTC
MEAN_ELEMENT_THEORY = SGP/SGP4

EPOCH          = 2025-10-28T08:30:02.611296
MEAN_MOTION    = 13.72330203
ECCENTRICITY   = .0132664
INCLINATION    = 99.3784
RA_OF_ASC_NODE = 174.1277
ARG_OF_PERICENTER = 308.3449
MEAN_ANOMALY   = 50.5836

EPHEMERIS_TYPE = 0
CLASSIFICATION_TYPE = U
NORAD_CAT_ID   = 87737
ELEMENT_SET_NO = 999
REV_AT_EPOCH   = 59763
BSTAR          = .10669E-3
MEAN_MOTION_DOT = .59E-6
MEAN_MOTION_DDOT = 0

CCSDS_OMM_VERS = 2.0
CREATION_DATE  = 
ORIGINATOR     = 

OBJECT_NAME    = UNKNOWN
OBJECT_ID      = 
CENTER_NAME    = EARTH
REF_FRAME      = TEME
TIME_SYSTEM    = UTC
MEAN_ELEMENT_THEORY = SGP/SGP4

EPOCH          = 2025-10-27T09:26:24.637344
MEAN_MOTION    = 14.33746688
ECCENTRICITY   = .0363137
INCLINATION    = 65.6736
RA_OF_ASC_NODE = 289.9301
ARG_OF_PERICENTER = 101.2208
MEAN_ANOMALY   = 43.6189

EPHEMERIS_TYPE = 0
CLASSIFICATION_TYPE = U
NORAD_CAT_ID   = 87764
ELEMENT_SET_NO = 999
REV_AT_EPOCH   = 61247
BSTAR          = .10328E-2
MEAN_MOTION_DOT = .5941E-4
MEAN_MOTION_DDOT = 0

CCSDS_OMM_VERS = 2.0
CREATION_DATE  = 
ORIGINATOR     = 

OBJECT_NAME    = UNKNOWN
OBJECT_ID      = 
CENTER_NAME    = EARTH
REF_FRAME      = TEME
TIME_SYSTEM    = UTC
MEAN_ELEMENT_THEORY = SGP/SGP4

EPOCH          = 2025-10-26T07:13:28.699968
MEAN_MOTION    = 13.19499102
ECCENTRICITY   = .0119667
INCLINATION    = 100.7474
RA_OF_ASC_NODE = 134.4305
ARG_OF_PERICENTER = 109.7103
MEAN_ANOMALY   = 251.6965

EPHEMERIS_TYPE = 0
CLASSIFICATION_TYPE = U
NORAD_CAT_ID   = 87771
ELEMENT_SET_NO = 999
REV_AT_EPOCH   = 52883
BSTAR          = .34653E-3
MEAN_MOTION_DOT = .97E-6
MEAN_MOTION_DDOT = 0

CCSDS_OMM_VERS = 2.0
CREATION_DATE  = 
ORIGINATOR     = 

OBJECT_NAME    = UNKNOWN
OBJECT_ID      = 
CENTER_NAME    = EARTH
REF_FRAME      = TEME
TIME_SYSTEM    = UTC
MEAN_ELEMENT_THEORY = SGP/SGP4

EPOCH          = 2025-10-26T21:48:28.345824
MEAN_MOTION    = 13.00083810
ECCENTRICITY   = .0070941
INCLINATION    = 102.3233
RA_OF_ASC_NODE = 165.3797
ARG_OF_PERICENTER = 322.6250
MEAN_ANOMALY   = 36.9924

EPHEMERIS_TYPE = 0
CLASSIFICATION_TYPE = U
NORAD_CAT_ID   = 87782
ELEMENT_SET_NO = 999
REV_AT_EPOCH   = 56190
BSTAR          = .11181E-1
MEAN_MOTION_DOT = .3356E-4
MEAN_MOTION_DDOT = 0

CCSDS_OMM_VERS = 2.0
CREATION_DATE  = 
ORIGINATOR     = 

OBJECT_NAME    = UNKNOWN
OBJECT_ID      = 
CENTER_NAME    = EARTH
REF_FRAME      = TEME
TIME_SYSTEM    = UTC
MEAN_ELEMENT_THEORY = SGP/SGP4

EPOCH          = 2025-10-28T02:07:17.639904
MEAN_MOTION    = 13.16334315
ECCENTRICITY   = .0239245
INCLINATION    = 99.6663
RA_OF_ASC_NODE = 59.0873
ARG_OF_PERICENTER = 113.6468
MEAN_ANOMALY   = 248.9957

EPHEMERIS_TYPE = 0
CLASSIFICATION_TYPE = U
NORAD_CAT_ID   = 87843
ELEMENT_SET_NO = 999
REV_AT_EPOCH   = 55815
BSTAR          = .54026E-2
MEAN_MOTION_DOT = .2346E-4
MEAN_MOTION_DDOT = 0

CCSDS_OMM_VERS = 2.0
CREATION_DATE  = 
ORIGINATOR     = 

OBJECT_NAME    = UNKNOWN
OBJECT_ID      = 
CENTER_NAME    = EARTH
REF_FRAME      = TEME
TIME_SYSTEM    = UTC
MEAN_ELEMENT_THEORY = SGP/SGP4

EPOCH          = 2025-10-25T04:05:17.869344
MEAN_MOTION    = 12.88683517
ECCENTRICITY   = .0577939
INCLINATION    = 98.8487
RA_OF_ASC_NODE = 265.2103
ARG_OF_PERICENTER = 5.6006
MEAN_ANOMALY   = 355.1206

EPHEMERIS_TYPE = 0
CLASSIFICATION_TYPE = U
NORAD_CAT_ID   = 87845
ELEMENT_SET_NO = 999
REV_AT_EPOCH   = 55895
BSTAR          = .46328E-2
MEAN_MOTION_DOT = .2455E-4
MEAN_MOTION_DDOT = 0

CCSDS_OMM_VERS = 2.0
CREATION_DATE  = 
ORIGINATOR     = 

OBJECT_NAME    = UNKNOWN
OBJECT_ID      = 
CENTER_NAME    = EARTH
REF_FRAME      = TEME
TIME_SYSTEM    = UTC
MEAN_ELEMENT_THEORY = SGP/SGP4

EPOCH          = 2025-10-26T13:00:36.668448
MEAN_MOTION    = 14.40209006
ECCENTRICITY   = .0035552
INCLINATION    = 99.1567
RA_OF_ASC_NODE = 55.7518
ARG_OF_PERICENTER = 46.7423
MEAN_ANOMALY   = 313.6721

EPHEMERIS_TYPE = 0
CLASSIFICATION_TYPE = U
NORAD_CAT_ID   = 87878
ELEMENT_SET_NO = 999
REV_AT_EPOCH   = 60450
BSTAR          = .1367E-2
MEAN_MOTION_DOT = .4309E-4
MEAN_MOTION_DDOT = 0

CCSDS_OMM_VERS = 2.0
CREATION_DATE  = 
ORIGINATOR     = 

OBJECT_NAME    = UNKNOWN
OBJECT_ID      = 
CENTER_NAME    = EARTH
REF_FRAME      = TEME
TIME_SYSTEM    = UTC
MEAN_ELEMENT_THEORY = SGP/SGP4

EPOCH          = 2025-10-23T13:06:08.396928
MEAN_MOTION    = 14.05927936
ECCENTRICITY   = .0153769
INCLINATION    = 98.7332
RA_OF_ASC_NODE = 42.1558
ARG_OF_PERICENTER = 209.1804
MEAN_ANOMALY   = 150.0709

EPHEMERIS_TYPE = 0
CLASSIFICATION_TYPE = U
NORAD_CAT_ID   = 87884
ELEMENT_SET_NO = 999
REV_AT_EPOCH   = 61131
BSTAR          = .21693E-3
MEAN_MOTION_DOT = .352E-5
MEAN_MOTION_DDOT = 0

CCSDS_OMM_VERS = 2.0
CREATION_DATE  = 
ORIGINATOR     = 

OBJECT_NAME    = UNKNOWN
OBJECT_ID      = 
CENTER_NAME    = EARTH
REF_FRAME      = TEME
TIME_SYSTEM    = UTC
MEAN_ELEMENT_THEORY = SGP/SGP4

EPOCH          = 2025-10-24T09:34:04.324224
MEAN_MOTION    = 13.73098446
ECCENTRICITY   = .0031334
INCLINATION    = 82.9377
RA_OF_ASC_NODE = 336.1830
ARG_OF_PERICENTER = 170.6674
MEAN_ANOMALY   = 206.2457

EPHEMERIS_TYPE = 0
CLASSIFICATION_TYPE = U
NORAD_CAT_ID   = 87934
ELEMENT_SET_NO = 999
REV_AT_EPOCH   = 59754
BSTAR          = .11385E-3
MEAN_MOTION_DOT = .121E-5
MEAN_MOTION_DDOT = 0

