UNKNOWN                 
1 87706U          25302.47930464  .00004649  00000+0  82876-3 0  9993
2 87706  98.6756 123.7111 0106808  45.1563   9.4879 14.63871155572040
UNKNOWN                 
1 87725U          25302.32164566  .00041797  00000+0  42485-2 0  9996
2 87725  82.8680 296.1918 0012605 177.6525 182.4756 14.90538157627298
UNKNOWN                 
1 87730U          25295.19664222  .00000117  00000+0  10736-3 0  9998
2 87730  82.9413 272.2399 0030743 145.2410 215.0763 13.74493218578255
UNKNOWN                 
1 87737U          25301.35419689  .00000059  00000+0  10669-3 0  9996
2 87737  99.3784 174.1277 0132664 308.3449  50.5836 13.72330203597637
UNKNOWN                 
1 87764U          25300.39334071  .00005941  00000+0  10328-2 0  9996
2 87764  65.6736 289.9301 0363137 101.2208  43.6189 14.33746688612477
UNKNOWN                 
1 87771U          25299.30102662  .00000097  00000+0  34653-3 0  9996
2 87771 100.7474 134.4305 0119667 109.7103 251.6965 13.19499102528835
UNKNOWN                 
1 87782U          25299.90866141  .00003356  00000+0  11181-1 0  9993
2 87782 102.3233 165.3797 0070941 322.6250  36.9924 13.00083810561905
UNKNOWN                 
1 87843U          25301.08839861  .00002346  00000+0  54026-2 0  9997
2 87843  99.6663  59.0873 0239245 113.6468 248.9957 13.16334315558155
UNKNOWN                 
1 87845U          25298.17034571  .00002455  00000+0  46328-2 0  9996
2 87845  98.8487 265.2103 0577939   5.6006 355.1206 12.88683517558957
UNKNOWN                 
1 87878U          25299.54209107  .00004309  00000+0  13670-2 0  9997
2 87878  99.1567  55.7518 0035552  46.7423 313.6721 14.40209006604508
UNKNOWN                 
1 87884U          25296.54593052  .00000352  00000+0  21693-3 0  9995
2 87884  98.7332  42.1558 0153769 209.1804 150.0709 14.05927936611319
UNKNOWN                 
1 87934U          25297.39866116  .00000121  00000+0  11385-3 0  9990
2 87934  82.9377 336.1830 0031334 170.6674 206.2457 13.73098446597549
